[{"OBJECT_NAME":"OBJECT L","OBJECT_ID":"2023-085L","EPOCH":"2026-03-09T23:02:21.999840","MEAN_MOTION":15.29079976,"ECCENTRICITY":0.0005428,"INCLINATION":97.486,"RA_OF_ASC_NODE":178.8598,"ARG_OF_PERICENTER":50.8528,"MEAN_ANOMALY":309.3193,"EPHEMERIS_TYPE":0,"CLASSIFICATION_TYPE":"U","NORAD_CAT_ID":57014,"ELEMENT_SET_NO":999,"REV_AT_EPOCH":15144,"BSTAR":0.00063462603,"MEAN_MOTION_DOT":0.00017871,"MEAN_MOTION_DDOT":0},{"OBJECT_NAME":"STARLINK-31384","OBJECT_ID":"2024-031U","EPOCH":"2026-03-09T21:51:15.063264","MEAN_MOTION":15.30184012,"ECCENTRICITY":0.00011279,"INCLINATION":53.1604,"RA_OF_ASC_NODE":295.906,"ARG_OF_PERICENTER":82.7914,"MEAN_ANOMALY":277.3215,"EPHEMERIS_TYPE":0,"CLASSIFICATION_TYPE":"U","NORAD_CAT_ID":58983,"ELEMENT_SET_NO":999,"REV_AT_EPOCH":11654,"BSTAR":3.8704947e-5,"MEAN_MOTION_DOT":7.87e-6,"MEAN_MOTION_DDOT":0}]
